satname,norad_id,inclination_deg,eccentricity,mean_motion_rev_per_day,perigee_km,apogee_km,l1,l2
STARLINK-1460,45676,53.1578,0.0001712,15.29344015,476.5983467198057,478.94580998823403,1 45676U 20035V   26075.19548267 -.00003539  00000+0 -11040-3 0  9990,2 45676  53.1578  34.7235 0001712 113.4123 246.7058 15.29344015319716
STARLINK-1392,45677,53.1547,0.0001779,15.29339189,476.56683261156286,479.00617019336096,1 45677U 20035W   26075.84550995  .00000817  00000+0  40659-4 0  9997,2 45677  53.1547  31.5641 0001779  88.4001 271.7203 15.29339189319859
STARLINK-1394,45679,53.0499,0.0003618,15.51123828,410.98644675943524,415.90083451099963,1 45679U 20035Y   26075.06286632  .00100151  00000+0  16744-2 0  9995,2 45679  53.0499   5.9588 0003618 151.3102 208.8107 15.51123828320141
STARLINK-1402,45685,53.0488,0.0001631,15.46118536,426.9833608590552,429.20355323414424,1 45685U 20035AE  26075.76814611  .00078884  00000+0  15773-2 0  9991,2 45685  53.0488 349.6563 0001631 208.9204 151.1712 15.46118536320441
STARLINK-1404,45686,53.163,0.0002148,15.30800453,471.9510960044563,474.8945260992832,1 45686U 20035AF  26075.87976950  .00043834  00000+0  14561-2 0  9990,2 45686  53.1630  16.2944 0002148  89.0174 271.1073 15.30800453320071
STARLINK-1413,45689,53.1632,0.0001616,15.30176896,474.1765418243558,476.391567509223,1 45689U 20035AJ  26075.56024164 -.00002947  00000+0 -87481-4 0  9995,2 45689  53.1632  17.6646 0001616  90.3804 269.7382 15.30176896319941
STARLINK-1417,45693,53.0527,0.0001746,15.1304218,525.7231178261081,528.1343667833207,1 45693U 20035AN  26075.86519186  .00026660  00000+0  15022-2 0  9992,2 45693  53.0527  21.7752 0001746 247.4650 112.6157 15.13042180319989
STARLINK-1420,45695,53.053,0.0004994,15.55161086,398.2985698548273,405.0702554818017,1 45695U 20035AQ  26075.23633391  .00098702  00000+0  14262-2 0  9991,2 45695  53.0530 350.7968 0004994 136.9459 223.1943 15.55161086320375
STARLINK-1422,45696,53.1624,0.0001105,15.30184303,474.50463764990127,476.01923881525,1 45696U 20035AR  26075.56761368 -.00000486  00000+0 -42884-5 0  9992,2 45696  53.1624  17.6331 0001105 107.6327 252.4795 15.30184303320026
STARLINK-1351,45697,53.0529,0.0004132,15.53717493,403.0801259609116,408.6864403228992,1 45697U 20035AS  26075.02560483  .00088514  00000+0  13509-2 0  9994,2 45697  53.0529 351.0841 0004132 154.7926 205.3286 15.53717493320357
STARLINK-1398,45699,53.0308,0.0005676,16.02439622,263.8927412197245,271.4370555347623,1 45699U 20035AU  26075.76759211  .00568927  15908-3  94388-3 0  9999,2 45699  53.0308 262.6678 0005676 268.1600  91.8780 16.02439622321653
STARLINK-1400,45700,53.0509,0.0007865,15.51886145,405.879524402324,416.55918194586775,1 45700U 20035AV  26075.83963529  .00086116  00000+0  14034-2 0  9996,2 45700  53.0509 348.5880 0007865 124.1693 236.0063 15.51886145320456
STARLINK-1403,45701,53.1566,0.0001759,15.29372731,476.4803195878694,478.8921982103493,1 45701U 20035AW  26075.91668981 -.00018285  00000+0 -62252-3 0  9990,2 45701  53.1566   2.9895 0001759  85.4344 263.9412 15.29372731  5785
STARLINK-1407,45703,53.0327,0.0008819,15.61721432,376.7219966526545,388.64673337626755,1 45703U 20035AY  26075.87034530  .00115241  00000+0  12955-2 0  9996,2 45703  53.0327 280.7330 0008819 133.1738 227.0014 15.61721432321415
STARLINK-1411,45706,53.0429,0.0004561,15.63629473,374.10215227879144,380.2643554143506,1 45706U 20035BB  26075.91668981  .00077894  00000+0  81952-3 0  9992,2 45706  53.0429 306.0776 0004561 162.0925 182.5585 15.63629473  5934
STARLINK-1423,45710,53.0511,0.0007696,15.54363486,398.7839930378832,409.22306373917854,1 45710U 20035BF  26075.73223265  .00093294  00000+0  13884-2 0  9999,2 45710  53.0511 348.0370 0007696 138.5967 221.5628 15.54363486320440
STARLINK-1433,45711,53.0508,0.000749,15.56369142,393.1001623109669,403.2510786164221,1 45711U 20035BG  26075.81228369  .00089144  00000+0  12334-2 0  9997,2 45711  53.0508 346.5906 0007490 131.2745 228.8911 15.56369142320476
STARLINK-1434,45712,53.0543,0.000515,15.27514842,479.71059814463206,486.7778207903839,1 45712U 20035BH  26075.76754171  .00044289  00000+0  16263-2 0  9993,2 45712  53.0543 347.2348 0005150 120.8619 239.2886 15.27514842320473
STARLINK-1465,45731,53.0507,0.0003957,15.51249965,410.3881897215688,415.76275527230337,1 45731U 20038B   26075.60595848  .00083156  00000+0  13883-2 0  9995,2 45731  53.0507 189.9455 0003957 316.8131  43.2567 15.51249965317454
STARLINK-1471,45735,53.0455,0.0001041,15.49291028,418.09128438125117,419.50640642426424,1 45735U 20038F   26075.80764082  .00019959  00000+0  36620-3 0  9994,2 45735  53.0455 107.9122 0001041 329.7041  30.3906 15.49291028318635
STARLINK-1480,45741,53.0518,0.0005829,15.48052743,418.4588883022043,426.38698107406435,1 45741U 20038M   26075.57485931  .00027408  00000+0  52117-3 0  9995,2 45741  53.0518 184.3216 0005829 205.3065 154.7657 15.48052743317549
STARLINK-1500,45744,53.0364,0.0002051,15.35219987,458.86459419172843,461.6697075744214,1 45744U 20038Q   26075.64428897  .00021326  00000+0  62404-3 0  9997,2 45744  53.0364 160.1183 0002051 305.0162  55.0646 15.35219987317885
STARLINK-1504,45746,53.0227,3.26e-05,15.53602285,405.99749016418264,406.43983015322556,1 45746U 20038S   26074.79878879  .00026970  00000+0  42170-3 0  9991,2 45746  53.0227 112.7025 0000326  26.8681 333.2345 15.53602285318469
STARLINK-1506,45747,53.0756,0.0002358,15.26403519,484.9554669841964,488.19286477002424,1 45747U 20038T   26075.73213141  .00007699  00000+0  30469-3 0  9997,2 45747  53.0756 169.7840 0002358 273.9934  86.0794 15.26403519317769
STARLINK-1464,45751,53.0511,0.0002863,15.44826389,429.93853125177884,433.8379517050489,1 45751U 20038X   26075.68519782  .00036146  00000+0  76432-3 0  9995,2 45751  53.0511 171.3342 0002863 310.4510  49.6245 15.44826389317734
STARLINK-1477,45754,53.0491,0.0001579,15.14837544,520.3823583986459,522.5612548597792,1 45754U 20038AA  26075.03400367  .00028733  00000+0  15379-2 0  9990,2 45754  53.0491 184.1174 0001579  23.9843 336.1223 15.14837544317492
STARLINK-1478,45755,53.0512,0.0003425,15.56330136,395.967916411395,400.6097681133442,1 45755U 20038AB  26074.67205174  .00086324  00000+0  11977-2 0  9999,2 45755  53.0512 168.9348 0003425 290.7348  69.3296 15.56330136317661
STARLINK-1484,45756,52.9943,0.0003632,16.15072488,230.5634028237564,235.36570699324147,1 45756U 20038AC  26075.85134616  .00954857  59523-3  70321-3 0  9995,2 45756  52.9943  19.0302 0003632 144.4859 215.6418 16.15072488319850
STARLINK-1493,45759,53.0525,0.0003257,15.51595452,409.85575240265734,414.2788914979765,1 45759U 20038AF  26075.73172208  .00082466  00000+0  13602-2 0  9992,2 45759  53.0525 170.6652 0003257  29.0742 331.0448 15.51595452317736
STARLINK-1494,45760,53.0478,0.0006448,15.75184541,339.7715974756129,348.4406021771483,1 45760U 20038AG  26075.54306227  .00082293  00000+0  53644-3 0  9992,2 45760  53.0478 117.5098 0006448  26.4593 333.6754 15.75184541318478
STARLINK-1502,45764,53.052,0.0004555,15.48353158,418.4460118127736,424.64052053525756,1 45764U 20038AL  26075.66033742  .00074371  00000+0  13774-2 0  9995,2 45764  53.0520 172.7087 0004555  16.7819 343.3338 15.48353158317715
STARLINK-1470,45772,53.0446,0.0002132,15.28596172,478.54584075518596,481.47015378202013,1 45772U 20038AU  26074.88664898  .00036263  00000+0  12924-2 0  9993,2 45772  53.0446 145.5409 0002132  22.7215 337.3878 15.28596172318023
STARLINK-1482,45773,53.1604,0.0001271,15.30532384,473.35187538604805,475.09374524983104,1 45773U 20038AV  26075.60393455  .00028457  00000+0  95936-3 0  9994,2 45773  53.1604 158.8970 0001271  65.8319 294.2814 15.30532384317902
STARLINK-1496,45780,53.0519,0.0002469,15.49369863,416.890175896081,420.2463889645451,1 45780U 20038BC  26074.90112797  .00070873  00000+0  12679-2 0  9993,2 45780  53.0519 148.0713 0002469 250.9405 109.1335 15.49369863317972
STARLINK-1513,45786,53.1625,8.35e-05,15.3018816,474.6781639033834,475.8226796028157,1 45786U 20038BJ  26074.96071060 -.00002817  00000+0 -83069-4 0  9990,2 45786  53.1625 162.0220 0000835  77.2835 282.8259 15.30188160317803
STARLINK-1522,46027,53.0619,0.0001902,15.09383285,536.7678170820718,539.3987472774143,1 46027U 20055A   26075.76745434  .00021098  00000+0  13199-2 0  9995,2 46027  53.0619  94.5749 0001902  72.4584 287.6614 15.09383285309959
STARLINK-1523,46028,53.1416,0.0002026,15.27018184,483.34147378014586,486.1223082547858,1 46028U 20055B   26075.91668981  .00119227  00000+0  43794-2 0  9990,2 46028  53.1416  93.0481 0002026  74.6228  49.9481 15.27018184  5586
STARLINK-1526,46029,53.1407,0.0002121,15.2697295,483.4117810591488,486.3230675359364,1 46029U 20055C   26075.91668981  .00119085  00000+0  43803-2 0  9994,2 46029  53.1407  93.0095 0002121  85.3222  99.5798 15.26972950  5634
STARLINK-1555,46032,53.1435,0.0001749,15.27507857,482.0650674050976,484.465185868994,1 46032U 20055F   26075.91668981  .00121470  00000+0  43945-2 0  9996,2 46032  53.1435  93.0932 0001749  97.9462 121.1868 15.27507857  5775
STARLINK-1556,46033,53.1471,0.0001225,15.2831297,480.0149708457493,481.6954239341094,1 46033U 20055G   26075.91668981  .00119222  00000+0  42103-2 0  9994,2 46033  53.1471  92.9826 0001225  76.0596 302.9962 15.28312970  5787
STARLINK-1557,46034,53.1501,0.0001694,15.28880981,477.994628112242,480.3178790665588,1 46034U 20055H   26075.91668981  .00134069  00000+0  46422-2 0  9999,2 46034  53.1501  92.8873 0001694  64.4047 347.1762 15.28880981  5786
STARLINK-1558,46035,53.1496,7.9e-05,15.28313993,480.31027646794246,481.3939967515262,1 46035U 20055J   26075.91668981  .01169042  00000+0  38510-1 0  9998,2 46035  53.1496  93.0714 0000790 114.3366 156.4876 15.28313993  5783
STARLINK-1560,46036,53.1555,0.0001786,15.29331469,476.58510159786056,479.03404571397004,1 46036U 20055K   26075.91668981  .00055657  00000+0  19281-2 0  9999,2 46036  53.1555  92.9294 0001786  82.3721 345.9376 15.29331469  5639
